NORAD_CAT_ID,OBJECT_NAME,OBJECT_TYPE,EPOCH,MEAN_MOTION,ECCENTRICITY,INCLINATION,RA_OF_ASC_NODE,ARG_OF_PERICENTER,MEAN_ANOMALY,BSTAR,MEAN_MOTION_DOT,MEAN_MOTION_DDOT,TLE_LINE0,TLE_LINE1,TLE_LINE2,SEMIMAJOR_AXIS,PERIOD,APOGEE,PERIGEE,DECAYED
54161.0,STARLINK-5269,PAYLOAD,2024-01-15 04:40:01,15.08857459,0.0001571,53.2172,295.9624,91.4559,268.6613,0.00015616,2.199e-05,0.0,0 STARLINK-5269,1 54161U 22141E   24015.19445640  .00002199  00000-0  15616-3 0  9995,2 54161  53.2172 295.9624 0001571  91.4559 268.6613 15.08857459 67280,6917.827,95.436,540.779,538.605,0.0
54161.0,STARLINK-5269,PAYLOAD,2024-01-16 02:55:26,15.08831453,0.0001547,53.2179,291.8032,87.818,272.2989,1.0651e-05,-1.19e-06,0.0,0 STARLINK-5269,1 54161U 22141E   24016.12184022 -.00000119  00000-0  10651-4 0  9999,2 54161  53.2179 291.8032 0001547  87.8180 272.2989 15.08831453 67426,6917.907,95.438,540.842,538.701,0.0
54161.0,STARLINK-5269,PAYLOAD,2024-01-16 04:30:50,15.08834142,0.0001498,53.2172,291.5038,85.8088,274.3075,2.7244e-05,1.46e-06,0.0,0 STARLINK-5269,1 54161U 22141E   24016.18807879  .00000146  00000-0  27244-4 0  9992,2 54161  53.2172 291.5038 0001498  85.8088 274.3075 15.08834142 67430,6917.898,95.438,540.8,538.727,0.0
54161.0,STARLINK-5269,PAYLOAD,2024-01-16 22:00:03,15.08840984,0.0001491,53.2169,288.2322,95.5407,264.5755,1.4551e-05,-5.6e-07,0.0,0 STARLINK-5269,1 54161U 22141E   24016.91671254 -.00000056  00000-0  14551-4 0  9997,2 54161  53.2169 288.2322 0001491  95.5407 264.5755 15.08840984 67540,6917.877,95.437,540.774,538.711,0.0
54161.0,STARLINK-5269,PAYLOAD,2024-01-16 23:35:26,15.08843617,0.0001509,53.2174,287.9347,95.9431,264.1733,6.0593e-05,6.77e-06,0.0,0 STARLINK-5269,1 54161U 22141E   24016.98295133  .00000677  00000-0  60593-4 0  9997,2 54161  53.2174 287.9347 0001509  95.9431 264.1733 15.08843617 67559,6917.869,95.437,540.778,538.69,0.0
54161.0,STARLINK-5269,PAYLOAD,2024-01-17 21:50:51,15.08837856,0.000137,53.2169,283.7723,87.8374,272.2775,0.00010631,1.404e-05,0.0,0 STARLINK-5269,1 54161U 22141E   24017.91031702  .00001404  00000-0  10631-3 0  9997,2 54161  53.2169 283.7723 0001370  87.8374 272.2775 15.08837856 67696,6917.887,95.438,540.7,538.804,0.0
54161.0,STARLINK-5269,PAYLOAD,2024-01-18 02:37:00,15.08840409,0.0001386,53.2166,282.8803,88.3043,271.8108,0.00013054,1.79e-05,0.0,0 STARLINK-5269,1 54161U 22141E   24018.10903601  .00001790  00000-0  13054-3 0  9995,2 54161  53.2166 282.8803 0001386  88.3043 271.8108 15.08840409 67725,6917.879,95.438,540.703,538.785,0.0
54161.0,STARLINK-5269,PAYLOAD,2024-01-18 21:41:38,15.08843344,0.0001416,53.2166,279.3106,86.9711,273.1443,-2.7848e-06,-3.32e-06,0.0,0 STARLINK-5269,1 54161U 22141E   24018.90391561 -.00000332  00000-0 -27848-5 0  9990,2 54161  53.2166 279.3106 0001416  86.9711 273.1443 15.08843344 67843,6917.87,95.437,540.715,538.756,0.0
54161.0,STARLINK-5269,PAYLOAD,2024-01-19 02:27:47,15.08851323,0.0001684,53.2175,278.4116,77.6999,282.4182,0.00014182,1.97e-05,0.0,0 STARLINK-5269,1 54161U 22141E   24019.10263052  .00001970  00000-0  14182-3 0  9998,2 54161  53.2175 278.4116 0001684  77.6999 282.4182 15.08851323 67878,6917.846,95.437,540.876,538.546,0.0
54161.0,STARLINK-5269,PAYLOAD,2024-01-19 23:07:48,15.08844001,0.0001686,53.2171,274.5469,89.0996,271.019,0.00011796,1.59e-05,0.0,0 STARLINK-5269,1 54161U 22141E   24019.96375479  .00001590  00000-0  11796-3 0  9995,2 54161  53.2171 274.5469 0001686  89.0996 271.0190 15.08844001 68002,6917.868,95.437,540.9,538.567,0.0
54161.0,STARLINK-5269,PAYLOAD,2024-01-20 22:58:35,15.08842813,0.0001608,53.216,270.0941,87.9677,272.15,-1.6002e-05,-5.43e-06,0.0,0 STARLINK-5269,1 54161U 22141E   24020.95735705 -.00000543  00000-0 -16002-4 0  9993,2 54161  53.2160 270.0941 0001608  87.9677 272.1500 15.08842813 68155,6917.872,95.437,540.849,538.624,0.0
54161.0,STARLINK-5269,PAYLOAD,2024-01-21 22:49:22,15.0884032,0.000167,53.2167,265.634,94.7407,265.3775,8.196e-05,1.017e-05,0.0,0 STARLINK-5269,1 54161U 22141E   24021.95095794  .00001017  00000-0  81960-4 0  9991,2 54161  53.2167 265.6340 0001670  94.7407 265.3775 15.08840320 68307,6917.879,95.438,540.9,538.589,0.0
54161.0,STARLINK-5269,PAYLOAD,2024-01-22 02:00:09,15.08819735,0.0001677,53.2159,265.0373,92.2201,267.8983,0.00045808,7.006e-05,0.0,0 STARLINK-5269,1 54161U 22141E   24022.08344237  .00007006  00000-0  45808-3 0  9999,2 54161  53.2159 265.0373 0001677  92.2201 267.8983 15.08819735 68326,6917.942,95.439,540.967,538.647,0.0
54161.0,STARLINK-5269,PAYLOAD,2024-01-22 22:40:09,15.08841839,0.0001498,53.2171,261.1674,107.4449,252.6707,3.8125e-05,3.19e-06,0.0,0 STARLINK-5269,1 54161U 22141E   24022.94455755  .00000319  00000-0  38125-4 0  9997,2 54161  53.2171 261.1674 0001498 107.4449 252.6707 15.08841839 68455,6917.875,95.437,540.776,538.703,0.0
54161.0,STARLINK-5269,PAYLOAD,2024-01-23 20:55:33,15.08841749,0.0001547,53.216,257.0051,100.2326,259.884,7.6868e-05,9.36e-06,0.0,0 STARLINK-5269,1 54161U 22141E   24023.87191707  .00000936  00000-0  76868-4 0  9995,2 54161  53.2160 257.0051 0001547 100.2326 259.8840 15.08841749 68598,6917.875,95.437,540.81,538.67,0.0
54161.0,STARLINK-5269,PAYLOAD,2024-01-24 19:10:57,15.08853361,0.0002179,53.2156,252.8429,137.0165,223.0998,-0.00014643,-2.619e-05,0.0,0 STARLINK-5269,1 54161U 22141E   24024.79927659 -.00002619  00000-0 -14643-3 0  9994,2 54161  53.2156 252.8429 0002179 137.0165 223.0998 15.08853361 68732,6917.84,95.437,541.212,538.197,0.0
54161.0,STARLINK-5269,PAYLOAD,2024-01-24 20:46:20,15.08844133,0.0001181,53.2155,252.5466,97.0751,263.0375,3.3956e-05,2.53e-06,0.0,0 STARLINK-5269,1 54161U 22141E   24024.86551910  .00000253  00000-0  33956-4 0  9994,2 54161  53.2155 252.5466 0001181  97.0751 263.0375 15.08844133 68748,6917.868,95.437,540.55,538.916,0.0
54161.0,STARLINK-5269,PAYLOAD,2024-01-25 19:01:48,15.08790756,0.0001214,53.2147,248.3788,92.44,267.6731,-0.00036371,-6.064e-05,0.0,0 STARLINK-5269,1 54161U 22141E   24025.79292147 -.00006064  00000-0 -36371-3 0  9992,2 54161  53.2147 248.3788 0001214  92.4400 267.6731 15.08790756 68888,6918.031,95.441,540.736,539.056,0.0
54161.0,STARLINK-5269,PAYLOAD,2024-01-25 22:12:31,15.0883836,0.0001362,53.2154,247.7896,106.003,254.1112,8.8111e-05,1.115e-05,0.0,0 STARLINK-5269,1 54161U 22141E   24025.92536267  .00001115  00000-0  88111-4 0  9991,2 54161  53.2154 247.7896 0001362 106.0030 254.1112 15.08838360 68905,6917.885,95.438,540.693,538.808,0.0
54161.0,STARLINK-5269,PAYLOAD,2024-01-27 13:57:09,15.08844426,0.0001331,53.2158,240.3568,82.2782,277.8361,0.00012089,1.637e-05,0.0,0 STARLINK-5269,1 54161U 22141E   24027.58136215  .00001637  00000-0  12089-3 0  9993,2 54161  53.2158 240.3568 0001331  82.2782 277.8361 15.08844426 69155,6917.867,95.437,540.653,538.811,0.0
54161.0,STARLINK-5269,PAYLOAD,2024-01-27 20:18:42,15.08846184,0.0001362,53.216,239.1677,80.3384,279.7762,0.00013003,1.782e-05,0.0,0 STARLINK-5269,1 54161U 22141E   24027.84632065  .00001782  00000-0  13003-3 0  9994,2 54161  53.2160 239.1677 0001362  80.3384 279.7762 15.08846184 69199,6917.861,95.437,540.669,538.784,0.0
54161.0,STARLINK-5269,PAYLOAD,2024-01-27 23:29:28,15.08847964,0.0001302,53.2155,238.5715,86.4702,273.6439,0.00013748,1.901e-05,0.0,0 STARLINK-5269,1 54161U 22141E   24027.97879757  .00001901  00000-0  13748-3 0  9998,2 54161  53.2155 238.5715 0001302  86.4702 273.6439 15.08847964 69218,6917.856,95.437,540.622,538.82,0.0
54161.0,STARLINK-5269,PAYLOAD,2024-01-28 20:09:29,15.08837881,0.0001277,53.215,234.7047,104.6597,255.4536,-4.1885e-05,-9.54e-06,0.0,0 STARLINK-5269,1 54161U 22141E   24028.83992825 -.00000954  00000-0 -41885-4 0  9999,2 54161  53.2150 234.7047 0001277 104.6597 255.4536 15.08837881 69342,6917.887,95.438,540.635,538.868,0.0
54161.0,STARLINK-5269,PAYLOAD,2024-01-28 23:20:16,15.08837488,0.0001503,53.2163,234.1097,113.6676,246.4474,-3.288e-05,-8.11e-06,0.0,0 STARLINK-5269,1 54161U 22141E   24028.97240772 -.00000811  00000-0 -32880-4 0  9998,2 54161  53.2163 234.1097 0001503 113.6676 246.4474 15.08837488 69361,6917.888,95.438,540.793,538.713,0.0
54161.0,STARLINK-5269,PAYLOAD,2024-01-30 13:29:31,15.08838108,0.000128,53.2163,226.974,105.5279,254.5855,8.8035e-05,1.113e-05,0.0,0 STARLINK-5269,1 54161U 22141E   24030.56216563  .00001113  00000-0  88035-4 0  9994,2 54161  53.2163 226.9740 0001280 105.5279 254.5855 15.08838108 69606,6917.886,95.438,540.637,538.866,0.0
54161.0,STARLINK-5269,PAYLOAD,2024-01-30 19:51:04,15.08833847,0.0001277,53.216,225.7845,101.7426,258.371,4.5684e-05,4.39e-06,0.0,0 STARLINK-5269,1 54161U 22141E   24030.82713011  .00000439  00000-0  45684-4 0  9996,2 54161  53.2160 225.7845 0001277 101.7426 258.3710 15.08833847 69645,6917.899,95.438,540.648,538.881,0.0
54161.0,STARLINK-5269,PAYLOAD,2024-01-31 11:44:55,15.08837247,0.0001302,53.216,222.8106,102.7555,257.3583,3.0376e-05,1.96e-06,0.0,0 STARLINK-5269,1 54161U 22141E   24031.48952994  .00000196  00000-0  30376-4 0  9996,2 54161  53.2160 222.8106 0001302 102.7555 257.3583 15.08837247 69742,6917.889,95.438,540.655,538.853,0.0
54161.0,STARLINK-5269,PAYLOAD,2024-02-01 11:35:42,15.08839005,0.0001326,53.2161,218.3502,99.8826,260.2316,0.00011379,1.523e-05,0.0,0 STARLINK-5269,1 54161U 22141E   24032.48312671  .00001523  00000-0  11379-3 0  9995,2 54161  53.2161 218.3502 0001326  99.8826 260.2316 15.08839005 69893,6917.883,95.438,540.666,538.831,0.0
54161.0,STARLINK-5269,PAYLOAD,2024-02-01 17:57:14,15.08841001,0.0001295,53.2158,217.161,91.4171,268.6969,0.00012739,1.74e-05,0.0,0 STARLINK-5269,1 54161U 22141E   24032.74808612  .00001740  00000-0  12739-3 0  9991,2 54161  53.2158 217.1610 0001295  91.4171 268.6969 15.08841001 69932,6917.877,95.437,540.638,538.846,0.0
54161.0,STARLINK-5269,PAYLOAD,2024-02-02 11:26:29,15.08842278,0.0001625,53.2168,213.8905,86.6616,273.4562,7.136e-05,8.48e-06,0.0,0 STARLINK-5269,1 54161U 22141E   24033.47672770  .00000848  00000-0  71360-4 0  9990,2 54161  53.2168 213.8905 0001625  86.6616 273.4562 15.08842278 70044,6917.873,95.437,540.863,538.614,0.0
